{"type": "FeatureCollection", "features": [ {"type": "Feature", "properties": {"norad_id": 30252, "name": "FENGYUN 1C DEB", "group": "fengyun-1c-debris", "lat": -50.03656195572951, "lon": 171.67972590158604, "alt_km": 820.1424157290048, "timestamp": "2025-12-13T05:42:57.834173+00:00", "meta": {"OBJECT_NAME": "FENGYUN 1C DEB", "OBJECT_ID": "1999-025XM", "EPOCH": "2025-12-11T12:28:10.606080", "MEAN_MOTION": 14.09707802, "ECCENTRICITY": 0.00659007, "INCLINATION": 98.7434, "RA_OF_ASC_NODE": 0.5924, "ARG_OF_PERICENTER": 245.1118, "MEAN_ANOMALY": 268.8125, "EPHEMERIS_TYPE": 0, "CLASSIFICATION_TYPE": "U", "NORAD_CAT_ID": 30252, "ELEMENT_SET_NO": 999, "REV_AT_EPOCH": 96948, "BSTAR": 0.00071696676, "MEAN_MOTION_DOT": 1.24e-05, "MEAN_MOTION_DDOT": 0}, "tle": {"line1": "1 30252U 99025XM  25345.51956720  .00001240  00000+0  71697-3 0  9990", "line2": "2 30252  98.7434   0.5924 0065900 245.1118 268.8125 14.09707802969487"}}, "geometry": {"type": "Point", "coordinates": [171.67972590158604, -50.03656195572951]}}, {"type": "Feature", "properties": {"norad_id": 30253, "name": "FENGYUN 1C DEB", "group": "fengyun-1c-debris", "lat": -43.48225972881018, "lon": 83.65756977251921, "alt_km": 973.9870380510793, "timestamp": "2025-12-13T05:42:57.834184+00:00", "meta": {"OBJECT_NAME": "FENGYUN 1C DEB", "OBJECT_ID": "1999-025XN", "EPOCH": "2025-12-12T05:42:04.510944", "MEAN_MOTION": 13.73178293, "ECCENTRICITY": 0.02214772, "INCLINATION": 98.7515, "RA_OF_ASC_NODE": 74.3417, "ARG_OF_PERICENTER": 42.5755, "MEAN_ANOMALY": 12.0678, "EPHEMERIS_TYPE": 0, "CLASSIFICATION_TYPE": "U", "NORAD_CAT_ID": 30253, "ELEMENT_SET_NO": 999, "REV_AT_EPOCH": 94007, "BSTAR": 0.0024566605, "MEAN_MOTION_DOT": 2.676e-05, "MEAN_MOTION_DDOT": 0}, "tle": {"line1": "1 30253U 99025XN  25346.23755221  .00002676  00000+0  24567-2 0  9991", "line2": "2 30253  98.7515  74.3417 0221477  42.5755  12.0678 13.73178293940075"}}, "geometry": {"type": "Point", "coordinates": [83.65756977251921, -43.48225972881018]}}, {"type": "Feature", "properties": {"norad_id": 30257, "name": "FENGYUN 1C DEB", "group": "fengyun-1c-debris", "lat": -50.33076743376698, "lon": 155.08654670679394, "alt_km": 896.6859713641534, "timestamp": "2025-12-13T05:42:57.834195+00:00", "meta": {"OBJECT_NAME": "FENGYUN 1C DEB", "OBJECT_ID": "1999-025XS", "EPOCH": "2025-12-10T17:50:14.803296", "MEAN_MOTION": 14.09722287, "ECCENTRICITY": 0.00596839, "INCLINATION": 98.7496, "RA_OF_ASC_NODE": 343.3636, "ARG_OF_PERICENTER": 104.8014, "MEAN_ANOMALY": 70.9872, "EPHEMERIS_TYPE": 0, "CLASSIFICATION_TYPE": "U", "NORAD_CAT_ID": 30257, "ELEMENT_SET_NO": 999, "REV_AT_EPOCH": 97189, "BSTAR": 0.00024819774, "MEAN_MOTION_DOT": 4.01e-06, "MEAN_MOTION_DDOT": 0}, "tle": {"line1": "1 30257U 99025XS  25344.74322689  .00000401  00000+0  24820-3 0  9994", "line2": "2 30257  98.7496 343.3636 0059683 104.8014  70.9872 14.09722287971898"}}, "geometry": {"type": "Point", "coordinates": [155.08654670679394, -50.33076743376698]}}, {"type": "Feature", "properties": {"norad_id": 30259, "name": "FENGYUN 1C DEB", "group": "fengyun-1c-debris", "lat": -5.733268326627821, "lon": -160.13596486941032, "alt_km": 712.8082185703761, "timestamp": "2025-12-13T05:42:57.834205+00:00", "meta": {"OBJECT_NAME": "FENGYUN 1C DEB", "OBJECT_ID": "1999-025XU", "EPOCH": "2025-12-12T02:23:56.395392", "MEAN_MOTION": 14.5150049, "ECCENTRICITY": 0.0242026, "INCLINATION": 98.7618, "RA_OF_ASC_NODE": 197.7896, "ARG_OF_PERICENTER": 270.2482, "MEAN_ANOMALY": 257.1223, "EPHEMERIS_TYPE": 0, "CLASSIFICATION_TYPE": "U", "NORAD_CAT_ID": 30259, "ELEMENT_SET_NO": 999, "REV_AT_EPOCH": 99465, "BSTAR": 0.00071273572, "MEAN_MOTION_DOT": 4.112e-05, "MEAN_MOTION_DDOT": 0}, "tle": {"line1": "1 30259U 99025XU  25346.09995828  .00004112  00000+0  71274-3 0  9995", "line2": "2 30259  98.7618 197.7896 0242026 270.2482 257.1223 14.51500490994652"}}, "geometry": {"type": "Point", "coordinates": [-160.13596486941032, -5.733268326627821]}}, {"type": "Feature", "properties": {"norad_id": 30263, "name": "FENGYUN 1C DEB", "group": "fengyun-1c-debris", "lat": 27.061177201819035, "lon": 97.7979321764528, "alt_km": 794.8497929001369, "timestamp": "2025-12-13T05:42:57.834216+00:00", "meta": {"OBJECT_NAME": "FENGYUN 1C DEB", "OBJECT_ID": "1999-025XY", "EPOCH": "2025-12-11T18:21:57.902400", "MEAN_MOTION": 14.01469427, "ECCENTRICITY": 0.01447664, "INCLINATION": 98.9347, "RA_OF_ASC_NODE": 100.9653, "ARG_OF_PERICENTER": 2.9731, "MEAN_ANOMALY": 156.5437, "EPHEMERIS_TYPE": 0, "CLASSIFICATION_TYPE": "U", "NORAD_CAT_ID": 30263, "ELEMENT_SET_NO": 999, "REV_AT_EPOCH": 96011, "BSTAR": 0.0014003176, "MEAN_MOTION_DOT": 2.274e-05, "MEAN_MOTION_DDOT": 0}, "tle": {"line1": "1 30263U 99025XY  25345.76525350  .00002274  00000+0  14003-2 0  9995", "line2": "2 30263  98.9347 100.9653 0144766   2.9731 156.5437 14.01469427960116"}}, "geometry": {"type": "Point", "coordinates": [97.7979321764528, 27.061177201819035]}}, {"type": "Feature", "properties": {"norad_id": 30264, "name": "FENGYUN 1C DEB", "group": "fengyun-1c-debris", "lat": -44.9140554276625, "lon": -146.69842312361342, "alt_km": 835.2535331548124, "timestamp": "2025-12-13T05:42:57.834227+00:00", "meta": {"OBJECT_NAME": "FENGYUN 1C DEB", "OBJECT_ID": "1999-025XZ", "EPOCH": "2025-12-12T03:10:43.215168", "MEAN_MOTION": 14.07634283, "ECCENTRICITY": 0.0107048, "INCLINATION": 98.9701, "RA_OF_ASC_NODE": 41.264, "ARG_OF_PERICENTER": 289.1012, "MEAN_ANOMALY": 97.3428, "EPHEMERIS_TYPE": 0, "CLASSIFICATION_TYPE": "U", "NORAD_CAT_ID": 30264, "ELEMENT_SET_NO": 999, "REV_AT_EPOCH": 96549, "BSTAR": 0.0016680723, "MEAN_MOTION_DOT": 2.924e-05, "MEAN_MOTION_DDOT": 0}, "tle": {"line1": "1 30264U 99025XZ  25346.13244462  .00002924  00000+0  16681-2 0  9996", "line2": "2 30264  98.9701  41.2640 0107048 289.1012  97.3428 14.07634283965495"}}, "geometry": {"type": "Point", "coordinates": [-146.69842312361342, -44.9140554276625]}}, {"type": "Feature", "properties": {"norad_id": 30265, "name": "FENGYUN 1C DEB", "group": "fengyun-1c-debris", "lat": -21.940783016540855, "lon": 99.905614535672, "alt_km": 686.3256077316837, "timestamp": "2025-12-13T05:42:57.834237+00:00", "meta": {"OBJECT_NAME": "FENGYUN 1C DEB", "OBJECT_ID": "1999-025YA", "EPOCH": "2025-12-12T07:01:16.359744", "MEAN_MOTION": 14.58611416, "ECCENTRICITY": 0.00282876, "INCLINATION": 98.664, "RA_OF_ASC_NODE": 95.3987, "ARG_OF_PERICENTER": 15.056, "MEAN_ANOMALY": 40.4381, "EPHEMERIS_TYPE": 0, "CLASSIFICATION_TYPE": "U", "NORAD_CAT_ID": 30265, "ELEMENT_SET_NO": 999, "REV_AT_EPOCH": 98395, "BSTAR": 0.0035350931, "MEAN_MOTION_DOT": 0.00016535, "MEAN_MOTION_DDOT": 0}, "tle": {"line1": "1 30265U 99025YA  25346.29255046  .00016535  00000+0  35351-2 0  9992", "line2": "2 30265  98.6640  95.3987 0028287  15.0560  40.4381 14.58611416983957"}}, "geometry": {"type": "Point", "coordinates": [99.905614535672, -21.940783016540855]}}, {"type": "Feature", "properties": {"norad_id": 30266, "name": "FENGYUN 1C DEB", "group": "fengyun-1c-debris", "lat": -80.44606058101571, "lon": 122.57005348957114, "alt_km": 901.7114878787543, "timestamp": "2025-12-13T05:42:57.834247+00:00", "meta": {"OBJECT_NAME": "FENGYUN 1C DEB", "OBJECT_ID": "1999-025YB", "EPOCH": "2025-12-12T03:07:01.385760", "MEAN_MOTION": 14.15077285, "ECCENTRICITY": 0.00826897, "INCLINATION": 99.0427, "RA_OF_ASC_NODE": 50.3331, "ARG_OF_PERICENTER": 67.7473, "MEAN_ANOMALY": 322.9627, "EPHEMERIS_TYPE": 0, "CLASSIFICATION_TYPE": "U", "NORAD_CAT_ID": 30266, "ELEMENT_SET_NO": 999, "REV_AT_EPOCH": 96781, "BSTAR": 0.0019523897, "MEAN_MOTION_DOT": 3.868e-05, "MEAN_MOTION_DDOT": 0}, "tle": {"line1": "1 30266U 99025YB  25346.12987715  .00003868  00000+0  19524-2 0  9999", "line2": "2 30266  99.0427  50.3331 0082689  67.7473 322.9627 14.15077285967814"}}, "geometry": {"type": "Point", "coordinates": [122.57005348957114, -80.44606058101571]}}, {"type": "Feature", "properties": {"norad_id": 30267, "name": "FENGYUN 1C DEB", "group": "fengyun-1c-debris", "lat": -22.272096232937596, "lon": -125.25511639407357, "alt_km": 785.497417823497, "timestamp": "2025-12-13T05:42:57.834258+00:00", "meta": {"OBJECT_NAME": "FENGYUN 1C DEB", "OBJECT_ID": "1999-025YC", "EPOCH": "2025-12-11T15:39:11.744928", "MEAN_MOTION": 14.2359382, "ECCENTRICITY": 0.00589877, "INCLINATION": 98.8494, "RA_OF_ASC_NODE": 56.8082, "ARG_OF_PERICENTER": 246.2038, "MEAN_ANOMALY": 113.2948, "EPHEMERIS_TYPE": 0, "CLASSIFICATION_TYPE": "U", "NORAD_CAT_ID": 30267, "ELEMENT_SET_NO": 999, "REV_AT_EPOCH": 97279, "BSTAR": 0.0023860884, "MEAN_MOTION_DOT": 5.492e-05, "MEAN_MOTION_DDOT": 0}, "tle": {"line1": "1 30267U 99025YC  25345.65221927  .00005492  00000+0  23861-2 0  9997", "line2": "2 30267  98.8494  56.8082 0058987 246.2038 113.2948 14.23593820972792"}}, "geometry": {"type": "Point", "coordinates": [-125.25511639407357, -22.272096232937596]}}, {"type": "Feature", "properties": {"norad_id": 30270, "name": "FENGYUN 1C DEB", "group": "fengyun-1c-debris", "lat": 9.881880542248151, "lon": -177.52612807384762, "alt_km": 851.3189388307301, "timestamp": "2025-12-13T05:42:57.834268+00:00", "meta": {"OBJECT_NAME": "FENGYUN 1C DEB", "OBJECT_ID": "1999-025YF", "EPOCH": "2025-12-12T06:52:12.031104", "MEAN_MOTION": 14.11270785, "ECCENTRICITY": 0.00074007, "INCLINATION": 98.7024, "RA_OF_ASC_NODE": 0.0224, "ARG_OF_PERICENTER": 160.4847, "MEAN_ANOMALY": 215.7924, "EPHEMERIS_TYPE": 0, "CLASSIFICATION_TYPE": "U", "NORAD_CAT_ID": 30270, "ELEMENT_SET_NO": 999, "REV_AT_EPOCH": 97355, "BSTAR": 0.00017044624, "MEAN_MOTION_DOT": 2.65e-06, "MEAN_MOTION_DDOT": 0}, "tle": {"line1": "1 30270U 99025YF  25346.28625036  .00000265  00000+0  17045-3 0  9991", "line2": "2 30270  98.7024   0.0224 0007400 160.4847 215.7924 14.11270785973558"}}, "geometry": {"type": "Point", "coordinates": [-177.52612807384762, 9.881880542248151]}}]}